{
  "type": "FeatureCollection",
  "features": [
    {
      "type": "Feature",
      "properties": {
        "norad_id": 27954,
        "name": "GALAXY 13 (HORIZONS-1)",
        "group": "intelsat",
        "lat": 0.6041950640314494,
        "lon": -133.73650063396656,
        "alt_km": 35778.71122343634,
        "timestamp": "2025-12-22T18:58:53.088305+00:00",
        "meta_object_name": "GALAXY 13 (HORIZONS-1)",
        "meta_object_id": "2003-044A",
        "meta_epoch": "2025-12-22T07:31:51.251232",
        "meta_mean_motion": 1.00270621,
        "meta_eccentricity": 0.00023631,
        "meta_inclination": 0.9614,
        "meta_ra_of_asc_node": 86.3464,
        "meta_arg_of_pericenter": 180.8052,
        "meta_mean_anomaly": 146.9051,
        "meta_ephemeris_type": 0,
        "meta_classification_type": "U",
        "meta_norad_cat_id": 27954,
        "meta_element_set_no": 999,
        "meta_rev_at_epoch": 4479,
        "meta_bstar": 0,
        "meta_mean_motion_dot": 1.54e-06,
        "meta_mean_motion_ddot": 0,
        "tle_line1": "1 27954U 03044A   25356.31378763  .00000154  00000+0  00000+0 0  9995",
        "tle_line2": "2 27954   0.9614  86.3464 0002363 180.8052 146.9051  1.00270621 44797"
      },
      "geometry": {
        "type": "Point",
        "coordinates": [
          -133.73650063396656,
          0.6041950640314494
        ]
      }
    },
    {
      "type": "Feature",
      "properties": {
        "norad_id": 28358,
        "name": "INTELSAT 10-02",
        "group": "intelsat",
        "lat": -0.014591523626819232,
        "lon": 15.354915162145012,
        "alt_km": 35784.50448956601,
        "timestamp": "2025-12-22T18:58:53.088317+00:00",
        "meta_object_name": "INTELSAT 10-02",
        "meta_object_id": "2004-022A",
        "meta_epoch": "2025-12-22T01:10:32.793888",
        "meta_mean_motion": 1.00271641,
        "meta_eccentricity": 9.947e-05,
        "meta_inclination": 0.0191,
        "meta_ra_of_asc_node": 73.3386,
        "meta_arg_of_pericenter": 234.5255,
        "meta_mean_anomaly": 159.6716,
        "meta_ephemeris_type": 0,
        "meta_classification_type": "U",
        "meta_norad_cat_id": 28358,
        "meta_element_set_no": 999,
        "meta_rev_at_epoch": 7878,
        "meta_bstar": 0,
        "meta_mean_motion_dot": 1.1e-07,
        "meta_mean_motion_ddot": 0,
        "tle_line1": "1 28358U 04022A   25356.04899067  .00000011  00000+0  00000+0 0  9998",
        "tle_line2": "2 28358   0.0191  73.3386 0000994 234.5255 159.6716  1.00271641 78784"
      },
      "geometry": {
        "type": "Point",
        "coordinates": [
          15.354915162145012,
          -0.014591523626819232
        ]
      }
    },
    {
      "type": "Feature",
      "properties": {
        "norad_id": 28626,
        "name": "XM-3 (RHYTHM)",
        "group": "intelsat",
        "lat": 0.026815672639860053,
        "lon": 82.84649282066206,
        "alt_km": 36159.83341875703,
        "timestamp": "2025-12-22T18:58:53.088330+00:00",
        "meta_object_name": "XM-3 (RHYTHM)",
        "meta_object_id": "2005-008A",
        "meta_epoch": "2025-12-22T03:13:27.740640",
        "meta_mean_motion": 0.98949851,
        "meta_eccentricity": 0.00020102,
        "meta_inclination": 0.1976,
        "meta_ra_of_asc_node": 82.0468,
        "meta_arg_of_pericenter": 277.1098,
        "meta_mean_anomaly": 209.796,
        "meta_ephemeris_type": 0,
        "meta_classification_type": "U",
        "meta_norad_cat_id": 28626,
        "meta_element_set_no": 999,
        "meta_rev_at_epoch": 4084,
        "meta_bstar": 0,
        "meta_mean_motion_dot": 9.3e-07,
        "meta_mean_motion_ddot": 0,
        "tle_line1": "1 28626U 05008A   25356.13434885  .00000093  00000+0  00000+0 0  9994",
        "tle_line2": "2 28626   0.1976  82.0468 0002010 277.1098 209.7960  0.98949851 40846"
      },
      "geometry": {
        "type": "Point",
        "coordinates": [
          82.84649282066206,
          0.026815672639860053
        ]
      }
    },
    {
      "type": "Feature",
      "properties": {
        "norad_id": 28659,
        "name": "DIRECTV 8",
        "group": "intelsat",
        "lat": -0.03784578326226369,
        "lon": -102.75065944981024,
        "alt_km": 35774.95650272801,
        "timestamp": "2025-12-22T18:58:53.088341+00:00",
        "meta_object_name": "DIRECTV 8",
        "meta_object_id": "2005-019A",
        "meta_epoch": "2025-12-22T05:50:32.529984",
        "meta_mean_motion": 1.00271407,
        "meta_eccentricity": 0.00029112,
        "meta_inclination": 0.0186,
        "meta_ra_of_asc_node": 22.9529,
        "meta_arg_of_pericenter": 259.0005,
        "meta_mean_anomaly": 137.6923,
        "meta_ephemeris_type": 0,
        "meta_classification_type": "U",
        "meta_norad_cat_id": 28659,
        "meta_element_set_no": 999,
        "meta_rev_at_epoch": 7529,
        "meta_bstar": 0,
        "meta_mean_motion_dot": 2.3e-07,
        "meta_mean_motion_ddot": 0,
        "tle_line1": "1 28659U 05019A   25356.24343206  .00000023  00000+0  00000+0 0  9993",
        "tle_line2": "2 28659   0.0186  22.9529 0002911 259.0005 137.6923  1.00271407 75296"
      },
      "geometry": {
        "type": "Point",
        "coordinates": [
          -102.75065944981024,
          -0.03784578326226369
        ]
      }
    },
    {
      "type": "Feature",
      "properties": {
        "norad_id": 28702,
        "name": "GALAXY 28 (G-28)",
        "group": "intelsat",
        "lat": -1.2922357176441734,
        "lon": -72.40382813245645,
        "alt_km": 35774.45049983512,
        "timestamp": "2025-12-22T18:58:53.088358+00:00",
        "meta_object_name": "GALAXY 28 (G-28)",
        "meta_object_id": "2005-022A",
        "meta_epoch": "2025-12-20T00:49:30.482112",
        "meta_mean_motion": 1.00271047,
        "meta_eccentricity": 0.00029384,
        "meta_inclination": 2.8382,
        "meta_ra_of_asc_node": 81.1982,
        "meta_arg_of_pericenter": 194.0723,
        "meta_mean_anomaly": 97.2981,
        "meta_ephemeris_type": 0,
        "meta_classification_type": "U",
        "meta_norad_cat_id": 28702,
        "meta_element_set_no": 999,
        "meta_rev_at_epoch": 5017,
        "meta_bstar": 0,
        "meta_mean_motion_dot": -1.65e-06,
        "meta_mean_motion_ddot": 0,
        "tle_line1": "1 28702U 05022A   25354.03438058 -.00000165  00000+0  00000+0 0  9999",
        "tle_line2": "2 28702   2.8382  81.1982 0002938 194.0723  97.2981  1.00271047 50172"
      },
      "geometry": {
        "type": "Point",
        "coordinates": [
          -72.40382813245645,
          -1.2922357176441734
        ]
      }
    },
    {
      "type": "Feature",
      "properties": {
        "norad_id": 29236,
        "name": "GALAXY 16 (G-16)",
        "group": "intelsat",
        "lat": 0.004235755126867873,
        "lon": -82.70359052888615,
        "alt_km": 35775.826427177504,
        "timestamp": "2025-12-22T18:58:53.088385+00:00",
        "meta_object_name": "GALAXY 16 (G-16)",
        "meta_object_id": "2006-023A",
        "meta_epoch": "2025-12-22T06:12:07.828416",
        "meta_mean_motion": 1.00270848,
        "meta_eccentricity": 0.00024919,
        "meta_inclination": 0.0065,
        "meta_ra_of_asc_node": 124.2422,
        "meta_arg_of_pericenter": 149.1661,
        "meta_mean_anomaly": 171.6816,
        "meta_ephemeris_type": 0,
        "meta_classification_type": "U",
        "meta_norad_cat_id": 29236,
        "meta_element_set_no": 999,
        "meta_rev_at_epoch": 7119,
        "meta_bstar": 0,
        "meta_mean_motion_dot": -1.05e-06,
        "meta_mean_motion_ddot": 0,
        "tle_line1": "1 29236U 06023A   25356.25842394 -.00000105  00000+0  00000+0 0  9996",
        "tle_line2": "2 29236   0.0065 124.2422 0002491 149.1661 171.6816  1.00270848 71194"
      },
      "geometry": {
        "type": "Point",
        "coordinates": [
          -82.70359052888615,
          0.004235755126867873
        ]
      }
    },
    {
      "type": "Feature",
      "properties": {
        "norad_id": 29494,
        "name": "DIRECTV 9S",
        "group": "intelsat",
        "lat": -0.433103251567657,
        "lon": -84.906743405941,
        "alt_km": 35773.88632831954,
        "timestamp": "2025-12-22T18:58:53.088402+00:00",
        "meta_object_name": "DIRECTV 9S",
        "meta_object_id": "2006-043A",
        "meta_epoch": "2025-12-22T06:15:17.447904",
        "meta_mean_motion": 1.0027229,
        "meta_eccentricity": 0.00028612,
        "meta_inclination": 1.9632,
        "meta_ra_of_asc_node": 83.1122,
        "meta_arg_of_pericenter": 192.9773,
        "meta_mean_anomaly": 167.5933,
        "meta_ephemeris_type": 0,
        "meta_classification_type": "U",
        "meta_norad_cat_id": 29494,
        "meta_element_set_no": 999,
        "meta_rev_at_epoch": 4961,
        "meta_bstar": 0,
        "meta_mean_motion_dot": -9.3e-07,
        "meta_mean_motion_ddot": 0,
        "tle_line1": "1 29494U 06043A   25356.26061861 -.00000093  00000+0  00000+0 0  9993",
        "tle_line2": "2 29494   1.9632  83.1122 0002861 192.9773 167.5933  1.00272290 49610"
      },
      "geometry": {
        "type": "Point",
        "coordinates": [
          -84.906743405941,
          -0.433103251567657
        ]
      }
    }
  ]
}